[{"OBJECT_NAME":"ONEWEB-0412","OBJECT_ID":"2021-132W","EPOCH":"2026-03-05T05:30:30.592800","MEAN_MOTION":13.18686356,"ECCENTRICITY":0.0001511,"INCLINATION":87.9249,"RA_OF_ASC_NODE":356.1037,"ARG_OF_PERICENTER":82.7894,"MEAN_ANOMALY":277.341,"EPHEMERIS_TYPE":0,"CLASSIFICATION_TYPE":"U","NORAD_CAT_ID":50489,"ELEMENT_SET_NO":999,"REV_AT_EPOCH":20795,"BSTAR":0.00021751,"MEAN_MOTION_DOT":9.9e-7,"MEAN_MOTION_DDOT":0},{"OBJECT_NAME":"ONEWEB-0413","OBJECT_ID":"2021-132X","EPOCH":"2026-03-05T05:37:38.651232","MEAN_MOTION":13.1868631,"ECCENTRICITY":0.0001615,"INCLINATION":87.9242,"RA_OF_ASC_NODE":356.1071,"ARG_OF_PERICENTER":88.3107,"MEAN_ANOMALY":271.821,"EPHEMERIS_TYPE":0,"CLASSIFICATION_TYPE":"U","NORAD_CAT_ID":50490,"ELEMENT_SET_NO":999,"REV_AT_EPOCH":20789,"BSTAR":0.00026081,"MEAN_MOTION_DOT":1.16e-6,"MEAN_MOTION_DDOT":0},{"OBJECT_NAME":"ONEWEB-0414","OBJECT_ID":"2021-132Y","EPOCH":"2026-03-05T12:33:17.459136","MEAN_MOTION":13.18688199,"ECCENTRICITY":0.0001604,"INCLINATION":87.9251,"RA_OF_ASC_NODE":356.0214,"ARG_OF_PERICENTER":77.2025,"MEAN_ANOMALY":282.9286,"EPHEMERIS_TYPE":0,"CLASSIFICATION_TYPE":"U","NORAD_CAT_ID":50491,"ELEMENT_SET_NO":999,"REV_AT_EPOCH":20796,"BSTAR":6.3429e-5,"MEAN_MOTION_DOT":3.8e-7,"MEAN_MOTION_DDOT":0},{"OBJECT_NAME":"ONEWEB-0417","OBJECT_ID":"2021-132Z","EPOCH":"2026-03-05T18:12:56.984832","MEAN_MOTION":13.18690661,"ECCENTRICITY":0.0001904,"INCLINATION":87.924,"RA_OF_ASC_NODE":356.0033,"ARG_OF_PERICENTER":71.4374,"MEAN_ANOMALY":288.6964,"EPHEMERIS_TYPE":0,"CLASSIFICATION_TYPE":"U","NORAD_CAT_ID":50492,"ELEMENT_SET_NO":999,"REV_AT_EPOCH":20797,"BSTAR":-0.0029443,"MEAN_MOTION_DOT":-1.148e-5,"MEAN_MOTION_DDOT":0},{"OBJECT_NAME":"ONEWEB-0418","OBJECT_ID":"2021-132AA","EPOCH":"2026-03-05T12:59:13.702848","MEAN_MOTION":13.18684749,"ECCENTRICITY":0.0001921,"INCLINATION":87.9253,"RA_OF_ASC_NODE":356.0356,"ARG_OF_PERICENTER":67.2536,"MEAN_ANOMALY":292.8799,"EPHEMERIS_TYPE":0,"CLASSIFICATION_TYPE":"U","NORAD_CAT_ID":50493,"ELEMENT_SET_NO":999,"REV_AT_EPOCH":20800,"BSTAR":-4.2996e-5,"MEAN_MOTION_DOT":-4.0e-8,"MEAN_MOTION_DDOT":0},{"OBJECT_NAME":"ONEWEB-0419","OBJECT_ID":"2021-132AB","EPOCH":"2026-03-05T17:04:05.881152","MEAN_MOTION":13.18686002,"ECCENTRICITY":0.0002067,"INCLINATION":87.925,"RA_OF_ASC_NODE":356.0022,"ARG_OF_PERICENTER":74.7552,"MEAN_ANOMALY":285.3808,"EPHEMERIS_TYPE":0,"CLASSIFICATION_TYPE":"U","NORAD_CAT_ID":50494,"ELEMENT_SET_NO":999,"REV_AT_EPOCH":20794,"BSTAR":6.3835e-5,"MEAN_MOTION_DOT":3.8e-7,"MEAN_MOTION_DDOT":0},{"OBJECT_NAME":"ONEWEB-0420","OBJECT_ID":"2021-132AC","EPOCH":"2026-03-05T18:03:28.507392","MEAN_MOTION":13.18685744,"ECCENTRICITY":0.0001826,"INCLINATION":87.9245,"RA_OF_ASC_NODE":356.0058,"ARG_OF_PERICENTER":82.9107,"MEAN_ANOMALY":277.2233,"EPHEMERIS_TYPE":0,"CLASSIFICATION_TYPE":"U","NORAD_CAT_ID":50495,"ELEMENT_SET_NO":999,"REV_AT_EPOCH":20794,"BSTAR":0.00011448,"MEAN_MOTION_DOT":5.8e-7,"MEAN_MOTION_DDOT":0},{"OBJECT_NAME":"ONEWEB-0421","OBJECT_ID":"2021-132AD","EPOCH":"2026-03-05T17:53:58.128288","MEAN_MOTION":13.18686442,"ECCENTRICITY":0.0001521,"INCLINATION":87.9251,"RA_OF_ASC_NODE":355.9992,"ARG_OF_PERICENTER":76.5327,"MEAN_ANOMALY":283.5975,"EPHEMERIS_TYPE":0,"CLASSIFICATION_TYPE":"U","NORAD_CAT_ID":50496,"ELEMENT_SET_NO":999,"REV_AT_EPOCH":20798,"BSTAR":7.4085e-5,"MEAN_MOTION_DOT":4.2e-7,"MEAN_MOTION_DDOT":0},{"OBJECT_NAME":"ONEWEB-0424","OBJECT_ID":"2021-132AE","EPOCH":"2026-03-05T16:56:58.176960","MEAN_MOTION":13.18686483,"ECCENTRICITY":0.0002172,"INCLINATION":87.9249,"RA_OF_ASC_NODE":356.0028,"ARG_OF_PERICENTER":77.2776,"MEAN_ANOMALY":282.8599,"EPHEMERIS_TYPE":0,"CLASSIFICATION_TYPE":"U","NORAD_CAT_ID":50497,"ELEMENT_SET_NO":999,"REV_AT_EPOCH":20800,"BSTAR":0.0001005,"MEAN_MOTION_DOT":5.3e-7,"MEAN_MOTION_DDOT":0},{"OBJECT_NAME":"ONEWEB-0426","OBJECT_ID":"2021-132AF","EPOCH":"2026-03-05T17:49:12.781920","MEAN_MOTION":13.18686962,"ECCENTRICITY":0.0001386,"INCLINATION":87.9253,"RA_OF_ASC_NODE":355.9867,"ARG_OF_PERICENTER":60.9459,"MEAN_ANOMALY":299.1811,"EPHEMERIS_TYPE":0,"CLASSIFICATION_TYPE":"U","NORAD_CAT_ID":50498,"ELEMENT_SET_NO":999,"REV_AT_EPOCH":20795,"BSTAR":9.8314e-5,"MEAN_MOTION_DOT":5.2e-7,"MEAN_MOTION_DDOT":0},{"OBJECT_NAME":"ONEWEB-0427","OBJECT_ID":"2021-132AG","EPOCH":"2026-03-05T16:54:34.511904","MEAN_MOTION":13.18697695,"ECCENTRICITY":0.0001896,"INCLINATION":87.9252,"RA_OF_ASC_NODE":355.9809,"ARG_OF_PERICENTER":70.077,"MEAN_ANOMALY":290.0566,"EPHEMERIS_TYPE":0,"CLASSIFICATION_TYPE":"U","NORAD_CAT_ID":50499,"ELEMENT_SET_NO":999,"REV_AT_EPOCH":20797,"BSTAR":0.0027789,"MEAN_MOTION_DOT":1.109e-5,"MEAN_MOTION_DDOT":0},{"OBJECT_NAME":"ONEWEB-0429","OBJECT_ID":"2021-132AH","EPOCH":"2026-03-05T05:40:00.795648","MEAN_MOTION":13.18685967,"ECCENTRICITY":0.000181,"INCLINATION":87.9247,"RA_OF_ASC_NODE":356.1066,"ARG_OF_PERICENTER":83.444,"MEAN_ANOMALY":276.6898,"EPHEMERIS_TYPE":0,"CLASSIFICATION_TYPE":"U","NORAD_CAT_ID":50500,"ELEMENT_SET_NO":999,"REV_AT_EPOCH":20788,"BSTAR":0.00035681,"MEAN_MOTION_DOT":1.54e-6,"MEAN_MOTION_DDOT":0},{"OBJECT_NAME":"ONEWEB-0430","OBJECT_ID":"2021-132AJ","EPOCH":"2026-03-05T18:08:13.386336","MEAN_MOTION":13.18686744,"ECCENTRICITY":0.0002043,"INCLINATION":87.9252,"RA_OF_ASC_NODE":356.0009,"ARG_OF_PERICENTER":82.3195,"MEAN_ANOMALY":277.8169,"EPHEMERIS_TYPE":0,"CLASSIFICATION_TYPE":"U","NORAD_CAT_ID":50501,"ELEMENT_SET_NO":999,"REV_AT_EPOCH":20799,"BSTAR":0.00011535,"MEAN_MOTION_DOT":5.8e-7,"MEAN_MOTION_DDOT":0},{"OBJECT_NAME":"ONEWEB-0432","OBJECT_ID":"2021-132AK","EPOCH":"2026-03-05T18:55:51.473280","MEAN_MOTION":13.18644678,"ECCENTRICITY":0.0002367,"INCLINATION":87.925,"RA_OF_ASC_NODE":355.9628,"ARG_OF_PERICENTER":67.0383,"MEAN_ANOMALY":293.0998,"EPHEMERIS_TYPE":0,"CLASSIFICATION_TYPE":"U","NORAD_CAT_ID":50502,"ELEMENT_SET_NO":999,"REV_AT_EPOCH":20795,"BSTAR":6.0837e-5,"MEAN_MOTION_DOT":3.7e-7,"MEAN_MOTION_DDOT":0},{"OBJECT_NAME":"ONEWEB-0440","OBJECT_ID":"2021-132AL","EPOCH":"2026-03-05T16:47:27.773664","MEAN_MOTION":13.18686195,"ECCENTRICITY":0.0001477,"INCLINATION":87.9252,"RA_OF_ASC_NODE":356.0012,"ARG_OF_PERICENTER":87.7699,"MEAN_ANOMALY":272.3602,"EPHEMERIS_TYPE":0,"CLASSIFICATION_TYPE":"U","NORAD_CAT_ID":50503,"ELEMENT_SET_NO":999,"REV_AT_EPOCH":20793,"BSTAR":0.00011629,"MEAN_MOTION_DOT":5.9e-7,"MEAN_MOTION_DDOT":0},{"OBJECT_NAME":"ONEWEB-0450","OBJECT_ID":"2021-132AM","EPOCH":"2026-03-05T05:42:35.426592","MEAN_MOTION":13.18685524,"ECCENTRICITY":0.0001906,"INCLINATION":87.9242,"RA_OF_ASC_NODE":356.1084,"ARG_OF_PERICENTER":88.0412,"MEAN_ANOMALY":272.0938,"EPHEMERIS_TYPE":0,"CLASSIFICATION_TYPE":"U","NORAD_CAT_ID":50504,"ELEMENT_SET_NO":999,"REV_AT_EPOCH":20790,"BSTAR":0.00028188,"MEAN_MOTION_DOT":1.24e-6,"MEAN_MOTION_DDOT":0},{"OBJECT_NAME":"ONEWEB-0410","OBJECT_ID":"2022-012A","EPOCH":"2026-03-05T08:04:43.434912","MEAN_MOTION":13.17648961,"ECCENTRICITY":0.0001977,"INCLINATION":87.9151,"RA_OF_ASC_NODE":26.4698,"ARG_OF_PERICENTER":39.1762,"MEAN_ANOMALY":320.9513,"EPHEMERIS_TYPE":0,"CLASSIFICATION_TYPE":"U","NORAD_CAT_ID":51622,"ELEMENT_SET_NO":999,"REV_AT_EPOCH":20002,"BSTAR":0.00020837,"MEAN_MOTION_DOT":9.4e-7,"MEAN_MOTION_DDOT":0}]
