ONEWEB-0412             
1 50489U 21132W   26064.22952075  .00000099  00000+0  21751-3 0  9991
2 50489  87.9249 356.1037 0001511  82.7894 277.3410 13.18686356207952
ONEWEB-0413             
1 50490U 21132X   26064.23447513  .00000116  00000+0  26081-3 0  9991
2 50490  87.9242 356.1071 0001615  88.3107 271.8210 13.18686310207899
ONEWEB-0414             
1 50491U 21132Y   26064.52311874  .00000038  00000+0  63429-4 0  9995
2 50491  87.9251 356.0214 0001604  77.2025 282.9286 13.18688199207963
ONEWEB-0417             
1 50492U 21132Z   26064.75899288 -.00001148  00000+0 -29443-2 0  9992
2 50492  87.9240 356.0033 0001904  71.4374 288.6964 13.18690661207971
ONEWEB-0418             
1 50493U 21132AA  26064.54113082 -.00000004  00000+0 -42996-4 0  9991
2 50493  87.9253 356.0356 0001921  67.2536 292.8799 13.18684749208004
ONEWEB-0419             
1 50494U 21132AB  26064.71117918  .00000038  00000+0  63835-4 0  9993
2 50494  87.9250 356.0022 0002067  74.7552 285.3808 13.18686002207949
ONEWEB-0420             
1 50495U 21132AC  26064.75241328  .00000058  00000+0  11448-3 0  9995
2 50495  87.9245 356.0058 0001826  82.9107 277.2233 13.18685744207946
ONEWEB-0421             
1 50496U 21132AD  26064.74581167  .00000042  00000+0  74085-4 0  9993
2 50496  87.9251 355.9992 0001521  76.5327 283.5975 13.18686442207987
ONEWEB-0424             
1 50497U 21132AE  26064.70622890  .00000053  00000+0  10050-3 0  9992
2 50497  87.9249 356.0028 0002172  77.2776 282.8599 13.18686483208009
ONEWEB-0426             
1 50498U 21132AF  26064.74250905  .00000052  00000+0  98314-4 0  9990
2 50498  87.9253 355.9867 0001386  60.9459 299.1811 13.18686962207950
ONEWEB-0427             
1 50499U 21132AG  26064.70456611  .00001109  00000+0  27789-2 0  9999
2 50499  87.9252 355.9809 0001896  70.0770 290.0566 13.18697695207974
ONEWEB-0429             
1 50500U 21132AH  26064.23612032  .00000154  00000+0  35681-3 0  9991
2 50500  87.9247 356.1066 0001810  83.4440 276.6898 13.18685967207884
ONEWEB-0430             
1 50501U 21132AJ  26064.75571049  .00000058  00000+0  11535-3 0  9996
2 50501  87.9252 356.0009 0002043  82.3195 277.8169 13.18686744207991
ONEWEB-0432             
1 50502U 21132AK  26064.78879020  .00000037  00000+0  60837-4 0  9997
2 50502  87.9250 355.9628 0002367  67.0383 293.0998 13.18644678207959
ONEWEB-0440             
1 50503U 21132AL  26064.69962701  .00000059  00000+0  11629-3 0  9995
2 50503  87.9252 356.0012 0001477  87.7699 272.3602 13.18686195207931
ONEWEB-0450             
1 50504U 21132AM  26064.23791003  .00000124  00000+0  28188-3 0  9992
2 50504  87.9242 356.1084 0001906  88.0412 272.0938 13.18685524207906
ONEWEB-0410             
1 51622U 22012A   26064.33661383  .00000094  00000+0  20837-3 0  9999
2 51622  87.9151  26.4698 0001977  39.1762 320.9513 13.17648961200029
